[{"OBJECT_NAME":"STARLINK-30488","OBJECT_ID":"2023-147U","EPOCH":"2026-03-09T02:48:31.979520","MEAN_MOTION":15.02537293,"ECCENTRICITY":9.673e-5,"INCLINATION":43.0042,"RA_OF_ASC_NODE":329.0116,"ARG_OF_PERICENTER":275.0886,"MEAN_ANOMALY":84.9846,"EPHEMERIS_TYPE":0,"CLASSIFICATION_TYPE":"U","NORAD_CAT_ID":57931,"ELEMENT_SET_NO":999,"REV_AT_EPOCH":13653,"BSTAR":-1.4490491e-5,"MEAN_MOTION_DOT":-3.99e-6,"MEAN_MOTION_DDOT":0},{"OBJECT_NAME":"CZ-6A DEB","OBJECT_ID":"2022-151ACK","EPOCH":"2026-03-09T17:07:55.484832","MEAN_MOTION":14.91029585,"ECCENTRICITY":0.00541971,"INCLINATION":98.6318,"RA_OF_ASC_NODE":144.964,"ARG_OF_PERICENTER":183.961,"MEAN_ANOMALY":176.1184,"EPHEMERIS_TYPE":0,"CLASSIFICATION_TYPE":"U","NORAD_CAT_ID":56267,"ELEMENT_SET_NO":999,"REV_AT_EPOCH":16429,"BSTAR":0.0040603804,"MEAN_MOTION_DOT":0.00041466,"MEAN_MOTION_DDOT":0}]
